357P/Hill,e,6.3100,44.5798,1.4182,4.461779,0.1045784,0.43452114,92.0493,10/25.0/2020,2000,g 15.5,4.0
# From MPEC 2020-HN5
358P/PANSTARRS,e,11.0572,85.7133,299.7332,3.148367,0.1764315,0.23815760,163.6475,10/25.0/2020,2000,g 18.0,4.0
# From MPC110086
359P/LONEOS,e,10.2656,149.7575,200.1338,4.639573,0.0986250,0.32392882,114.4911,10/25.0/2020,2000,g 13.5,4.0
# From MPC108599
360P/WISE,e,24.0978,2.1925,354.1155,3.702853,0.1383246,0.49865244,160.8665,10/25.0/2020,2000,g 19.5,6.0
# From MPC114609
361P/Spacewatch,e,13.8881,203.2531,219.0962,4.940307,0.0897580,0.43783431,75.9235,10/25.0/2020,2000,g 12.0,4.0
# From MPEC 2017-V13
362P/,e,15.5582,192.5832,53.6892,3.967937,0.1246973,0.27978172,189.9402,10/25.0/2020,2000,g 12.9,2.0
# From MPC114609
363P/Lemmon,e,5.2297,147.9617,340.1816,3.522824,0.1490622,0.53827956,141.7320,10/25.0/2020,2000,g 17.5,4.0
# From MPC114609
364P/PANSTARRS,e,12.1446,46.2057,211.9894,2.878965,0.2017667,0.72240247,172.2357,10/25.0/2020,2000,g 17.0,2.0
# From MPC111775
365P/PANSTARRS,e,9.8346,87.3866,66.2203,3.178562,0.1739234,0.57563012,171.5893,10/25.0/2020,2000,g 17.0,4.0
# From MPC114610
366P/Spacewatch,e,8.8594,70.7554,153.1617,3.495556,0.1508099,0.34845016,124.7161,10/25.0/2020,2000,g 15.0,4.0
# From MPC112395
367P/Catalina,e,8.4633,58.7175,172.9216,3.505259,0.1501841,0.28047593,128.6703,10/25.0/2020,2000,g 17.5,2.0
# From MPC114610
368P/NEAT,e,15.4827,257.9623,118.7794,5.526745,0.0758577,0.62620720,58.5306,10/25.0/2020,2000,g 14.0,4.0
# From MPC114610
369P/Hill,e,10.3111,47.3021,13.2056,4.385691,0.1073117,0.55421744,79.5123,10/25.0/2020,2000,g 15.0,4.0
# From MPC114610
370P/NEAT,e,19.4005,55.1342,356.6973,6.436506,0.0603572,0.61439816,52.4263,10/25.0/2020,2000,g 13.0,4.0
# From MPC114610
371P/LINEAR-Skiff,e,17.3774,67.3175,308.4536,4.181387,0.1152719,0.47642868,86.6005,10/25.0/2020,2000,g 16.0,4.0
# From MPEC 2020-K19
372P/McNaught,e,9.5098,325.8184,27.1913,4.503116,0.1031417,0.15260952,75.7932,10/25.0/2020,2000,g 13.5,4.0
# From MPC114610
373P/Rinner,e,13.7594,231.9492,221.1397,3.804747,0.1328053,0.39217241,75.0496,10/25.0/2020,2000,g 14.5,4.0
# From MPC114610
374P/Larson,e,10.7611,7.9138,51.5269,4.974949,0.0888221,0.46234788,58.0296,10/25.0/2020,2000,g 14.0,4.0
# From MPC114610
375P/Hill,e,17.3613,359.9447,119.4751,5.558891,0.0752007,0.65876022,50.6679,10/25.0/2020,2000,g 16.0,4.0
# From MPEC 2020-SI8
376P/LONEOS,e,1.1937,314.8339,285.1557,5.863808,0.0694120,0.51813278,27.2581,10/25.0/2020,2000,g 12.5,4.0
# From MPC115888
377P/Scotti,e,9.0226,226.0593,354.9975,6.712307,0.0566756,0.25260592,5.9748,10/25.0/2020,2000,g  9.5,4.0
# From MPEC 2019-TG9
378P/McNaught,e,19.0983,94.5145,194.0579,6.381137,0.0611444,0.47017817,0.2483,10/25.0/2020,2000,g 12.0,4.0
# From MPC115889
379P/Spacewatch,e,12.3966,183.8880,31.2041,3.526912,0.1488032,0.33923721,67.0474,10/25.0/2020,2000,g 15.0,4.0
# From MPEC 2020-KB7
380P/PANSTARRS,e,8.2695,132.9739,89.7476,4.541159,0.1018484,0.33077124,51.6489,10/25.0/2020,2000,g 12.5,4.0
# From MPEC 2019-TG9
381P/LINEAR-Spacewatch,e,28.3750,173.7823,173.1305,7.118781,0.0518914,0.68171495,20.4470,10/25.0/2020,2000,g 17.5,2.0
# From MPC115889
382P/Larson,e,7.7056,176.6749,174.0821,6.268800,0.0627953,0.30118893,326.6756,10/25.0/2020,2000,g  8.0,4.0
# From MPC118844
383P/Christensen,e,12.3211,207.8876,133.6477,3.544460,0.1476995,0.59955043,53.8737,10/25.0/2020,2000,g 18.0,4.0
# From MPEC 2020-U96
384P/Kowalski,e,7.2824,354.2262,37.6359,2.901477,0.1994231,0.61539414,75.6938,10/25.0/2020,2000,g 19.5,4.0
# From MPEC 2020-C98
385P/Hill,e,16.8272,357.0672,44.3318,4.288256,0.1109898,0.40132098,45.0841,10/25.0/2020,2000,g 13.0,4.0
# From MPEC 2020-C98
386P/PANSTARRS,e,15.2294,134.9478,353.2532,4.058254,0.1205578,0.41643389,8.0327,10/25.0/2020,2000,g 14.5,4.0
# From MPEC 2020-C98
387P/Boattini,e,8.9173,259.3320,162.7828,4.800072,0.0937200,0.73599523,38.8775,10/25.0/2020,2000,g 15.0,4.0
# From MPEC 2020-HN5
388P/Gibbs,e,23.8621,37.0469,42.3912,5.246224,0.0820227,0.61795843,37.6846,10/25.0/2020,2000,g 13.0,4.0
# From MPC118845
389P/Siding Spring,e,160.0650,218.8503,249.2865,5.626303,0.0738532,0.70440486,22.2122,10/25.0/2020,2000,g 16.0,4.0
# From MPEC 2020-U96
390P/Gibbs,e,18.5599,152.2772,232.3455,5.801060,0.0705412,0.70698038,15.2902,10/25.0/2020,2000,g 12.0,4.0
# From MPEC 2020-AA5
391P/Kowalski,e,21.2762,124.7301,186.7851,4.676956,0.0974449,0.12080388,92.6038,10/25.0/2020,2000,g  8.0,4.0
# From MPEC 2020-HN5
392P/LINEAR,e,4.9296,24.8829,71.9874,6.148971,0.0646399,0.68285782,13.3920,10/25.0/2020,2000,g 14.5,4.0
# From MPEC 2020-U96
393P/Spacewatch-Hill,e,16.7942,36.4210,328.0812,4.784560,0.0941762,0.12032112,34.5271,10/25.0/2020,2000,g 11.0,4.0
# From MPEC 2020-KB7
394P/PANSTARRS,e,8.5296,98.1246,54.5148,4.332712,0.1092859,0.36807185,36.0228,10/25.0/2020,2000,g 16.0,2.4
# From MPEC 2020-K19
395P/Catalina-NEAT,e,3.2796,223.8006,89.8266,6.526636,0.0591112,0.37723942,334.4350,10/25.0/2020,2000,g 10.0,4.0
# From MPEC 2020-KB7
396P/Leonard,e,5.4363,136.6612,8.6494,6.822955,0.0553026,0.41626406,23.3959,10/25.0/2020,2000,g 12.0,4.0
# From MPEC 2020-U96
397P/Lemmon,e,10.9285,8.2102,14.4033,3.826102,0.1316950,0.40489026,16.8187,10/25.0/2020,2000,g 12.0,4.0
# From MPEC 2020-U96
398P/Boattini,e,11.0152,127.4651,320.2324,3.127899,0.1781660,0.58256716,348.8211,10/25.0/2020,2000,g 15.5,4.0
# From MPEC 2020-U96
399P/PANSTARRS,e,13.3187,207.1484,214.2774,3.789123,0.1336275,0.44678090,331.9988,10/25.0/2020,2000,g 14.0,4.0
# From MPEC 2020-U96
400P/PANSTARRS,e,10.9292,176.3984,238.7790,3.558794,0.1468081,0.40896530,344.1330,10/25.0/2020,2000,g 15.5,2.8
# From MPEC 2020-U96
401P/McNaught,e,12.8044,359.8909,309.2928,5.770718,0.0710983,0.58012196,22.9594,10/25.0/2020,2000,g 12.5,4.0
# From MPEC 2020-U96
402P/LINEAR,e,30.8530,123.0883,326.7688,7.004970,0.0531612,0.43787288,337.8941,10/25.0/2020,2000,g  8.0,4.0
# From MPC107687
1I/`Oumuamua,h,09/09.4886/2017,122.6778,24.5997,241.6845,1.199252,0.255240,2000,23.0,2.0
# From MPEC 2020-K19
2I/Borisov,h,12/08.5549/2019,44.0527,308.1480,209.1251,3.356636,2.006548,2000,11.0,4.0
